STARLINK-32510          
1 62040U 24216J   26068.52684532  .00025524  00000+0  93471-3 0  9998
2 62040  42.9971 264.7697 0000959 195.8026 164.2795 15.27549679 73763
PELICAN-6               
1 66703U 25276AP  26068.70709364  .00077979  00000+0  29726-2 0  9998
2 66703  97.4276 144.2072 0003569 157.8575 202.2819 15.26377980 15334
